*******************************************************************************
Ephemeris / WWW_USER Mon Jul 15 19:08:50 2024 Pasadena, USA      / Horizons    
*******************************************************************************
Target body name: (2017 SN16)                     {source: JPL#20}
Center body name: Earth (399)                     {source: DE441}
Center-site name: Gemini South Obs., Cerro Pachon
*******************************************************************************
Start time      : A.D. 2018-Oct-16 23:02:00.0000 UT      
Stop  time      : A.D. 2018-Oct-17 09:54:00.0000 UT      
Step-size       : 1 minutes
*******************************************************************************
Target pole/equ : undefined
Target radii    : undefined                                                    
Center geodetic : 289.2634, -30.2406227, 2.71233  {E-lon(deg),Lat(deg),Alt(km)}
Center cylindric: 289.2634,5517.21435,-3194.81213 {E-lon(deg),Dxy(km),Dz(km)}
Center pole/equ : ITRF93                          {East-longitude positive}
Center radii    : 6378.137, 6378.137, 6356.752 km {Equator_a, b, pole_c}       
Target primary  : Sun
Vis. interferer : MOON (R_eq= 1737.400) km        {source: DE441}
Rel. light bend : Sun                             {source: DE441}
Rel. lght bnd GM: 1.3271E+11 km^3/s^2                                          
Small-body perts: Yes                             {source: SB441-N16}
Atmos refraction: NO (AIRLESS)
RA format       : HMS
Time format     : CAL 
Calendar mode   : Mixed Julian/Gregorian
RTS-only print  : NO       
EOP file        : eop.240715.p241008                                           
EOP coverage    : DATA-BASED 1962-JAN-20 TO 2024-JUL-15. PREDICTS-> 2024-OCT-07
Units conversion: 1 au= 149597870.700 km, c= 299792.458 km/s, 1 day= 86400.0 s 
Table cut-offs 1: Elevation (-90.0deg=NO ),Airmass (>38.000=NO), Daylight (YES)
Table cut-offs 2: Solar elongation (  0.0,180.0=NO ),Local Hour Angle( 0.0=NO )
Table cut-offs 3: RA/DEC angular rate (     0.0=NO )                           
*******************************************************************************
Initial IAU76/J2000 heliocentric ecliptic osculating elements (au, days, deg.):
  EPOCH=  2458305.5 ! 2018-Jul-06.00 (TDB)         Residual RMS= .23751        
   EC= .1454884975659386   QR= .8682464985612274   TP= 2458145.5722438502      
   OM= 2.759719470837934   W=  137.1017088998531   IN= 13.38264682844635       
  Equivalent ICRF heliocentric cartesian coordinates (au, au/d):
   X= 5.756755401261899E-01  Y=-7.953424559592890E-01  Z=-6.031561894536019E-01
  VX= 1.332076113263395E-02 VY= 5.454663564585547E-03 VZ= 3.896229736425836E-03
Asteroid physical parameters (km, seconds, rotational period in hours):        
   GM= n.a.                RAD= n.a.               ROTPER= n.a.                
   H= 23.34                G= .150                 B-V= n.a.                   
                           ALBEDO= n.a.            STYP= n.a.                  
*******************************************************************************
 Date__(UT)__HR:MN     R.A._________(ICRF)_________DEC
******************************************************
$$SOE
 2018-Oct-17 09:17 N   21 20 40.429636 +12 49 52.92655
 2018-Oct-17 09:18 N   21 20 40.303349 +12 49 54.82793
 2018-Oct-17 09:19 N   21 20 40.177116 +12 49 56.72942
 2018-Oct-17 09:20 N   21 20 40.050937 +12 49 58.63102
 2018-Oct-17 09:21 N   21 20 39.924810 +12 50 00.53272
 2018-Oct-17 09:22 N   21 20 39.798737 +12 50 02.43453
 2018-Oct-17 09:23 N   21 20 39.672716 +12 50 04.33644
 2018-Oct-17 09:24 N   21 20 39.546747 +12 50 06.23847
 2018-Oct-17 09:25 N   21 20 39.420832 +12 50 08.14060
 2018-Oct-17 09:26 N   21 20 39.294968 +12 50 10.04284
 2018-Oct-17 09:27 N   21 20 39.169156 +12 50 11.94520
 2018-Oct-17 09:28 N   21 20 39.043395 +12 50 13.84766
 2018-Oct-17 09:29 N   21 20 38.917687 +12 50 15.75024
 2018-Oct-17 09:30 N   21 20 38.792029 +12 50 17.65293
 2018-Oct-17 09:31 N   21 20 38.666422 +12 50 19.55573
 2018-Oct-17 09:32 N   21 20 38.540867 +12 50 21.45864
 2018-Oct-17 09:33 N   21 20 38.415361 +12 50 23.36167
 2018-Oct-17 09:34 N   21 20 38.289906 +12 50 25.26482
 2018-Oct-17 09:35 N   21 20 38.164502 +12 50 27.16808
 2018-Oct-17 09:36 N   21 20 38.039147 +12 50 29.07146
 2018-Oct-17 09:37 N   21 20 37.913842 +12 50 30.97495
 2018-Oct-17 09:38 C   21 20 37.788586 +12 50 32.87856
 2018-Oct-17 09:39 C   21 20 37.663379 +12 50 34.78229
 2018-Oct-17 09:40 C   21 20 37.538222 +12 50 36.68614
 2018-Oct-17 09:41 C   21 20 37.413113 +12 50 38.59011
 2018-Oct-17 09:42 C   21 20 37.288053 +12 50 40.49420
 2018-Oct-17 09:43 C   21 20 37.163041 +12 50 42.39841
 2018-Oct-17 09:44 C   21 20 37.038077 +12 50 44.30275
 2018-Oct-17 09:45 C   21 20 36.913161 +12 50 46.20720
 2018-Oct-17 09:46 C   21 20 36.788293 +12 50 48.11178
 2018-Oct-17 09:47 C   21 20 36.663472 +12 50 50.01648
 2018-Oct-17 09:48 C   21 20 36.538698 +12 50 51.92131
 2018-Oct-17 09:49 C   21 20 36.413971 +12 50 53.82626
 2018-Oct-17 09:50 C   21 20 36.289291 +12 50 55.73134
 2018-Oct-17 09:51 C   21 20 36.164657 +12 50 57.63654
 2018-Oct-17 09:52 C   21 20 36.040069 +12 50 59.54187
 2018-Oct-17 09:53 C   21 20 35.915527 +12 51 01.44732
 2018-Oct-17 09:54 C   21 20 35.791032 +12 51 03.35291
